satname,norad_id,inclination_deg,eccentricity,mean_motion_rev_per_day,perigee_km,apogee_km,l1,l2
STARLINK-1152,45096,53.0431,0.0006136,15.29025106,474.5179664916541,482.93270795189255,1 45096U 20006BE  25356.83593317  .00046101  00000+0  16155-2 0  9993,2 45096  53.0431 206.3819 0006136  78.9799 281.1889 15.29025106325790
STARLINK-1184,45098,53.0528,0.0002007,15.06952749,544.1284021579186,546.9075572667753,1 45098U 20006BG  25356.81547475  .00014380  00000+0  96780-3 0  9994,2 45098  53.0528 231.6929 0002007 119.2551 240.8639 15.06952749325433
STARLINK-1193,45100,53.0545,0.0001555,15.0639583,546.1474447290457,548.3012321052938,1 45100U 20006BJ  25356.81441669  .00001602  00000+0  12642-3 0  9994,2 45100  53.0545 231.7233 0001555  96.7200 263.3966 15.06395830325437
STARLINK-1143,45179,53.0532,9.26e-05,15.47600625,423.11749849149146,424.3772074736644,1 45179U 20012B   25356.36373899  .00091473  00000+0  17337-2 0  9996,2 45179  53.0532 343.6252 0000926 250.2775 109.8132 15.47600625323891
STARLINK-1202,45183,53.0557,0.0001233,15.06409527,546.3284673323124,548.0362510862942,1 45183U 20012F   25356.81072052  .00002960  00000+0  21747-3 0  9992,2 45183  53.0557  31.7444 0001233  89.0583 271.0547 15.06409527323253
STARLINK-1216,45185,53.0558,0.0001353,15.06406251,546.2554025220725,548.1293966576013,1 45185U 20012H   25356.80334539  .00001712  00000+0  13380-3 0  9992,2 45185  53.0558  31.7731 0001353  85.8579 274.2565 15.06406251323196
STARLINK-1225,45187,53.0567,0.0001315,15.06405405,546.2843112842666,548.1056735982775,1 45187U 20012K   25356.82177619  .00002696  00000+0  19977-3 0  9990,2 45187  53.0567  31.6922 0001315  89.0906 271.0234 15.06405405323241
STARLINK-1230,45189,53.0579,0.0001697,15.06404271,546.023238540427,548.3736973982559,1 45189U 20012M   25356.82545885 -.00001703  00000+0 -95466-4 0  9994,2 45189  53.0579  31.6796 0001697  89.6307 270.4876 15.06404271320476
STARLINK-1234,45190,53.0519,0.0010193,15.44969468,424.5267557009738,438.40881601742603,1 45190U 20012N   25356.25927612  .00139848  00000+0  28741-2 0  9995,2 45190  53.0519 338.8520 0010193  33.0908 327.0734 15.44969468323842
STARLINK-1269,45197,53.0543,0.0001414,15.06414861,546.1867736422682,548.1452493339166,1 45197U 20012V   25356.83652409  .00006173  00000+0  43278-3 0  9992,2 45197  53.0543  31.6262 0001414  86.3526 273.7625 15.06414861323228
STARLINK-1154,45198,53.0571,0.0001629,15.06408758,546.0565811521601,548.3128509672533,1 45198U 20012W   25354.77055567  .00005195  00000+0  36729-3 0  9992,2 45198  53.0571  20.9014 0001629  90.8068 269.3108 15.06408758323163
STARLINK-1199,45201,53.0543,0.0001374,15.06396688,546.270164473277,548.1732530464442,1 45201U 20012Z   25356.44028944  .00001765  00000+0  13739-3 0  9997,2 45201  53.0543  13.4051 0001374  88.2567 271.8579 15.06396688323479
STARLINK-1209,45206,53.0522,0.001044,15.37918859,445.13345770633805,459.39533582278364,1 45206U 20012AE  25356.79457950  .00096969  00000+0  25365-2 0  9990,2 45206  53.0522 339.3180 0010440  36.2711 323.8998 15.37918859323031
STARLINK-1210,45207,53.0214,0.0004454,15.71434151,351.7985529186162,357.7962508838309,1 45207U 20012AF  25356.91670139  .00172554  00000+0  13020-2 0  9991,2 45207  53.0214 289.5882 0004454 146.5503 198.2854 15.71434151  5945
STARLINK-1231,45212,53.0519,0.0001737,15.15573176,518.0409209680247,520.4370693887504,1 45212U 20012AL  25356.26057137  .00042724  00000+0  22276-2 0  9990,2 45212  53.0519   9.7833 0001737 177.1509 182.9494 15.15573176323463
STARLINK-1271,45217,53.0568,0.000145,15.06397114,546.216226303286,548.2245799501934,1 45217U 20012AR  25356.42554333  .00002124  00000+0  16147-3 0  9994,2 45217  53.0568  13.4708 0001450  99.1753 260.9400 15.06397114323472
STARLINK-1191,45222,53.0565,0.000152,15.06398394,546.163826372368,548.2691338303193,1 45222U 20012AW  25356.36841136  .00000652  00000+0  62663-4 0  9992,2 45222  53.0565 353.7269 0001520  90.5051 269.6112 15.06398394323748
STARLINK-1212,45223,53.0558,0.0001435,15.06371296,546.3057328186133,548.2933331035738,1 45223U 20012AX  25356.38692710  .00005258  00000+0  37191-3 0  9991,2 45223  53.0558 354.3002 0001435  98.6060 261.5092 15.06371296323747
STARLINK-1215,45225,53.056,0.0001375,15.06400527,546.2577075550216,548.1621779642801,1 45225U 20012AZ  25356.40895330  .00000893  00000+0  78861-4 0  9999,2 45225  53.0560 353.5443 0001375  90.7086 269.4061 15.06400527323705
STARLINK-1221,45227,53.0678,0.0005605,15.38834614,445.7273752516594,453.38121719472474,1 45227U 20012BB  25356.18217376  .00016836  00000+0  44092-3 0  9996,2 45227  53.0678 276.0261 0005605 112.3530 247.8068 15.38834614324766
STARLINK-1222,45228,53.0572,8.17e-05,15.40248491,444.8178388397091,445.9328007527629,1 45228U 20012BC  25356.91670139  .01660855  00000+0  36896-1 0  9996,2 45228  53.0572 348.9077 0000817 100.5571  87.7365 15.40248491  5782
STARLINK-1226,45229,53.0581,0.0001685,15.0640431,546.0314294343143,548.3652674467385,1 45229U 20012BD  25356.40526902  .00001349  00000+0  10940-3 0  9999,2 45229  53.0581 353.5619 0001685  86.8044 273.3138 15.06404310323647
STARLINK-1227,45230,53.057,0.000142,15.06402999,546.2189682604258,548.1857646404978,1 45230U 20012BE  25356.40158243  .00002570  00000+0  19137-3 0  9994,2 45230  53.0570 353.5769 0001420  93.8362 266.2790 15.06402999323760
STARLINK-1246,45235,53.0572,0.000151,15.06393457,546.1858807031822,548.2773420238136,1 45235U 20012BK  25356.81441247  .00000517  00000+0  53583-4 0  9996,2 45235  53.0572  31.7230 0001510  95.0593 265.0569 15.06393457323270
STARLINK-1270,45237,53.0533,0.0001529,15.23760953,493.45774698424793,495.55940200092846,1 45237U 20012BM  25356.91670139  .02052752  00000+0  75758-1 0  9998,2 45237  53.0533 350.7215 0001529 100.4909 355.7824 15.23760953  5735
STARLINK-1279,45360,53.0486,0.0003515,15.42850408,435.3057877697265,440.0973222739076,1 45360U 20019A   25356.81516235  .00097052  00000+0  21606-2 0  9991,2 45360  53.0486 107.3435 0003515 224.8144 135.2577 15.42850408318759
STARLINK-1301,45361,53.0487,0.0004357,15.46136535,425.07518321671796,431.00608640769315,1 45361U 20019B   25356.81450264  .00098512  00000+0  19610-2 0  9995,2 45361  53.0487 116.0411 0004357 218.5646 141.5050 15.46136535318640
STARLINK-1306,45362,53.0367,0.0003462,15.94272165,288.0345652257356,292.6518209114165,1 45362U 20019C   25356.91670139  .00347781  58363-4  91620-3 0  9999,2 45362  53.0367  90.6337 0003462   5.7833 193.9631 15.94272165  6050
STARLINK-1262,45366,53.0546,0.0001312,15.06399269,546.3051923241565,548.1224043736438,1 45366U 20019G   25356.59693249 -.00000367  00000+0 -57688-5 0  9990,2 45366  53.0546 152.6971 0001312  92.1475 267.9664 15.06399269318119
STARLINK-1273,45367,53.0539,0.0001316,15.06402474,546.2926006226007,548.1153503673504,1 45367U 20019H   25356.81809500  .00000194  00000+0  31898-4 0  9995,2 45367  53.0539 151.7050 0001316  90.5842 269.5297 15.06402474318140
STARLINK-1276,45368,53.0541,0.0001245,15.06408417,546.3235584818995,548.0479638494298,1 45368U 20019J   25356.58957764  .00001069  00000+0  90645-4 0  9993,2 45368  53.0541 152.7337 0001245  92.4331 267.6801 15.06408417318118
STARLINK-1277,45369,53.0542,0.0001431,15.0639797,546.22676133393,548.2087978718528,1 45369U 20019K   25356.18419029  .00000117  00000+0  26722-4 0  9995,2 45369  53.0542 155.1793 0001431  91.1446 268.9707 15.06397970318045
STARLINK-1281,45370,53.0541,0.0001585,15.06447758,545.9675458664597,548.1628349608209,1 45370U 20019L   25356.18043127 -.00010272  00000+0 -67079-3 0  9993,2 45370  53.0541 154.5721 0001585 103.7986 256.3180 15.06447758318056
STARLINK-1300,45374,53.0538,0.0001449,15.06393188,546.228949784595,548.2359218470947,1 45374U 20019Q   25356.46793541  .00000835  00000+0  74961-4 0  9991,2 45374  53.0538 153.2783 0001449  94.4600 265.6555 15.06393188318098
STARLINK-1302,45375,53.0554,0.0001341,15.06398859,546.2863652305832,548.1437446517175,1 45375U 20019R   25356.81440963  .00000871  00000+0  77338-4 0  9999,2 45375  53.0554 151.7238 0001341  89.6449 270.4693 15.06398859318146
STARLINK-1304,45376,53.0559,0.0001462,15.06399538,546.200487735915,548.2254600682845,1 45376U 20019S   25355.83763708  .00001428  00000+0  11476-3 0  9995,2 45376  53.0559 156.1062 0001462  83.3175 276.7980 15.06399538317992
STARLINK-1305,45377,53.0499,0.0006137,15.38901531,445.16633364838526,453.5463990062153,1 45377U 20019T   25356.91670139  .00125632  00000+0  31714-2 0  9991,2 45377  53.0499 138.4223 0006137 181.7446 230.2913 15.38901531  5819
STARLINK-1319,45379,53.0502,0.0004861,15.44194878,430.43353585801833,437.05604733581004,1 45379U 20019V   25356.91670139  .00117791  00000+0  24971-2 0  9997,2 45379  53.0502 139.0501 0004861 197.3703 284.3517 15.44194878  5829
STARLINK-1266,45383,53.0543,0.0001213,15.06408033,546.3468962659617,548.0269798533345,1 45383U 20019Z   25356.58770833  .00001137  00000+0  95162-4 0  9995,2 45383  53.0543 132.7446 0001213  89.4194 270.6934 15.06408033318388
STARLINK-1267,45384,53.0544,0.0001565,15.25624332,487.8366311744976,489.98601729998245,1 45384U 20019AA  25356.91670139  .01955489  00000+0  68634-1 0  9991,2 45384  53.0544 131.2037 0001565  88.7746 349.3028 15.25624332  5783
STARLINK-1272,45386,53.0509,0.0005062,15.42388778,435.61058781337124,442.5123195278684,1 45386U 20019AC  25356.80897513  .00096170  00000+0  21742-2 0  9990,2 45386  53.0509 117.9916 0005062 213.9819 146.0862 15.42388778318619
STARLINK-1274,45387,53.0349,0.0001389,15.35954074,457.13854815033574,459.037651483065,1 45387U 20019AD  25356.51136709  .00103374  00000+0  28822-2 0  9993,2 45387  53.0349 108.7992 0001389  34.5789 325.5303 15.35954074318710
STARLINK-1280,45388,53.0494,0.0006006,15.48059585,418.3184926678905,426.48730119208267,1 45388U 20019AE  25356.91670139  .00110454  00000+0  20526-2 0  9998,2 45388  53.0494 134.7597 0006006 175.4823  48.0797 15.48059585  5845
